     3.03           N: GNSS NAV DATA    M: MIXED            RINEX VERSION / TYPE
GR30 V4.20          ASI-egeos           20210701 235942 UTC PGM / RUN BY / DATE
GAL    3.7750D+01  3.7500D-01  2.2034D-02                   IONOSPHERIC CORR
GPSA   7.4506D-09  2.2352D-08 -5.9605D-08 -1.1921D-07       IONOSPHERIC CORR
GPSB   9.2160D+04  1.3107D+05 -6.5536D+04 -5.2429D+05       IONOSPHERIC CORR
BDSA   9.3132D-09  4.4703D-08 -4.1723D-07  6.5565D-07 M 02  IONOSPHERIC CORR
BDSA   9.3132D-09  6.7055D-08 -5.3644D-07  7.7486D-07 W 05  IONOSPHERIC CORR
BDSA   9.3132D-09  6.7055D-08 -5.3644D-07  7.7486D-07 Q 06  IONOSPHERIC CORR
BDSA   9.3132D-09  6.7055D-08 -5.3644D-07  7.7486D-07 W 07  IONOSPHERIC CORR
BDSA   8.3819D-09  7.4506D-08 -5.3644D-07  8.3447D-07 I 08  IONOSPHERIC CORR
BDSA   9.3132D-09  6.7055D-08 -5.3644D-07  7.7486D-07 U 09  IONOSPHERIC CORR
BDSA   9.3132D-09  6.7055D-08 -5.3644D-07  7.7486D-07 W 10  IONOSPHERIC CORR
BDSA   7.4506D-09  8.1956D-08 -5.3644D-07  8.3447D-07 O 11  IONOSPHERIC CORR
BDSA   9.3132D-09  6.7055D-08 -5.3644D-07  7.7486D-07 Q 12  IONOSPHERIC CORR
BDSA   8.3819D-09  7.4506D-08 -5.3644D-07  8.3447D-07 K 13  IONOSPHERIC CORR
BDSA   9.3132D-09  6.7055D-08 -5.3644D-07  7.7486D-07 W 14  IONOSPHERIC CORR
BDSA   9.3132D-09  6.7055D-08 -5.3644D-07  7.7486D-07 Q 16  IONOSPHERIC CORR
BDSA   9.3132D-09  6.7055D-08 -5.3644D-07  7.7486D-07 O 19  IONOSPHERIC CORR
BDSA   9.3132D-09  6.7055D-08 -5.3644D-07  8.3447D-07 M 20  IONOSPHERIC CORR
BDSA   9.3132D-09  6.7055D-08 -5.3644D-07  7.7486D-07 U 21  IONOSPHERIC CORR
BDSA   9.3132D-09  6.7055D-08 -5.3644D-07  7.7486D-07 S 22  IONOSPHERIC CORR
BDSA   9.3132D-09  6.7055D-08 -5.3644D-07  7.7486D-07 W 23  IONOSPHERIC CORR
BDSA   9.3132D-09  6.7055D-08 -5.3644D-07  7.7486D-07 W 24  IONOSPHERIC CORR
BDSA   9.3132D-09  6.7055D-08 -5.3644D-07  7.7486D-07 W 25  IONOSPHERIC CORR
BDSA   9.3132D-09  6.7055D-08 -5.3644D-07  7.7486D-07 W 26  IONOSPHERIC CORR
BDSA   9.3132D-09  6.7055D-08 -5.3644D-07  7.7486D-07 U 27  IONOSPHERIC CORR
BDSA   9.3132D-09  6.7055D-08 -5.3644D-07  7.7486D-07 U 28  IONOSPHERIC CORR
BDSA   9.3132D-09  6.7055D-08 -5.3644D-07  8.3447D-07 M 29  IONOSPHERIC CORR
BDSA   8.3819D-09  7.4506D-08 -5.3644D-07  8.3447D-07 K 30  IONOSPHERIC CORR
BDSB   1.1059D+05  3.7683D+05 -1.5729D+06  1.1141D+06 M 02  IONOSPHERIC CORR
BDSB   1.0854D+05  3.2768D+05 -1.4418D+06  1.1141D+06 W 05  IONOSPHERIC CORR
BDSB   1.1059D+05  3.4406D+05 -1.5073D+06  1.1796D+06 Q 06  IONOSPHERIC CORR
BDSB   1.0854D+05  3.2768D+05 -1.4418D+06  1.1141D+06 W 07  IONOSPHERIC CORR
BDSB   1.1469D+05  2.4576D+05 -1.1796D+06  9.8304D+05 I 08  IONOSPHERIC CORR
BDSB   1.0854D+05  3.4406D+05 -1.5073D+06  1.1796D+06 U 09  IONOSPHERIC CORR
BDSB   1.0854D+05  3.2768D+05 -1.4418D+06  1.1141D+06 W 10  IONOSPHERIC CORR
BDSB   1.1878D+05  2.1299D+05 -1.1141D+06  9.8304D+05 O 11  IONOSPHERIC CORR
BDSB   1.1059D+05  3.4406D+05 -1.5073D+06  1.1796D+06 Q 12  IONOSPHERIC CORR
BDSB   1.1469D+05  2.6214D+05 -1.2452D+06  1.0486D+06 K 13  IONOSPHERIC CORR
BDSB   1.0854D+05  3.2768D+05 -1.4418D+06  1.1141D+06 W 14  IONOSPHERIC CORR
BDSB   1.1059D+05  3.4406D+05 -1.5073D+06  1.1796D+06 Q 16  IONOSPHERIC CORR
BDSB   1.1264D+05  2.9491D+05 -1.3763D+06  1.1141D+06 O 19  IONOSPHERIC CORR
BDSB   1.1469D+05  2.6214D+05 -1.2452D+06  1.0486D+06 M 20  IONOSPHERIC CORR
BDSB   1.0854D+05  3.4406D+05 -1.5073D+06  1.1796D+06 U 21  IONOSPHERIC CORR
BDSB   1.1059D+05  3.4406D+05 -1.7039D+06  1.3763D+06 S 22  IONOSPHERIC CORR
BDSB   1.0854D+05  3.2768D+05 -1.4418D+06  1.1141D+06 W 23  IONOSPHERIC CORR
BDSB   1.0854D+05  3.2768D+05 -1.4418D+06  1.1141D+06 W 24  IONOSPHERIC CORR
BDSB   1.0854D+05  3.2768D+05 -1.4418D+06  1.1141D+06 W 25  IONOSPHERIC CORR
BDSB   1.0854D+05  3.2768D+05 -1.4418D+06  1.1141D+06 W 26  IONOSPHERIC CORR
BDSB   1.0854D+05  3.4406D+05 -1.5073D+06  1.1796D+06 U 27  IONOSPHERIC CORR
BDSB   1.0854D+05  3.4406D+05 -1.5073D+06  1.1796D+06 U 28  IONOSPHERIC CORR
BDSB   1.1469D+05  2.6214D+05 -1.2452D+06  1.0486D+06 M 29  IONOSPHERIC CORR
BDSB   1.1469D+05  2.6214D+05 -1.2452D+06  1.0486D+06 K 30  IONOSPHERIC CORR
GPUT -3.7252902985D-09-1.065814104D-14 589824 2164          TIME SYSTEM CORR
GLUT  2.5611370802D-08 0.000000000D+00      0    0          TIME SYSTEM CORR
GAUT  9.3132257462D-10 0.000000000D+00 345600 2164          TIME SYSTEM CORR
GPGA  5.7334546000D-09 8.437694987D-15 432000 2164          TIME SYSTEM CORR
BDUT -1.8626451492D-09 0.000000000D+00 431945  808          TIME SYSTEM CORR
    18    18  1929     7                                    LEAP SECONDS
                                                            END OF HEADER
G20 2021 07 03 00 00 00 5.205781199038D-04-3.410605131648D-13 0.000000000000D+00
     4.800000000000D+01-2.843750000000D+00 5.362009063486D-09 7.353643433337D-02
    -6.519258022308D-08 6.081168074161D-03 6.375834345818D-06 5.151747133255D+03
     5.184000000000D+05 5.029141902924D-08 3.108294029723D+00-2.980232238770D-08
     9.390209800501D-01 2.458750000000D+02 3.041327243030D+00-8.516069014171D-09
     3.425142670940D-10 1.000000000000D+00 2.164000000000D+03 0.000000000000D+00
     2.000000000000D+00 0.000000000000D+00-8.381903171539D-09 4.800000000000D+01
     5.112000000000D+05                   
G13 2021 07 03 00 00 00 1.526135019958D-04 5.002220859751D-12 0.000000000000D+00
     1.000000000000D+02-3.346875000000D+01 4.614477925813D-09 8.485552012730D-01
    -1.553446054459D-06 5.070145009086D-03 8.387491106987D-06 5.153681613922D+03
     5.184000000000D+05-2.421438694000D-08-1.849218623538D+00 4.842877388000D-08
     9.678582201855D-01 2.217187500000D+02 9.588294394377D-01-8.101408884770D-09
    -2.935836575092D-10 1.000000000000D+00 2.164000000000D+03 0.000000000000D+00
     2.000000000000D+00 0.000000000000D+00-1.117587089539D-08 1.000000000000D+02
     5.112000000000D+05                   
G09 2021 07 03 00 00 00-3.538741730154D-04-1.591615728103D-12 0.000000000000D+00
     7.500000000000D+01-3.875000000000D+01 4.881631910992D-09 1.830982951766D+00
    -2.129003405571D-06 1.898005139083D-03 7.927417755127D-06 5.153754177094D+03
     5.184000000000D+05 1.490116119385D-08-1.998474938400D+00-5.215406417847D-08
     9.531895713259D-01 2.186562500000D+02 1.828988072786D+00-8.148196547949D-09
    -2.960837616486D-10 1.000000000000D+00 2.164000000000D+03 0.000000000000D+00
     2.000000000000D+00 0.000000000000D+00 1.396983861923D-09 7.500000000000D+01
     5.112000000000D+05                   
G07 2021 07 03 00 00 00 1.931102015078D-04 9.208633855451D-12 0.000000000000D+00
     1.500000000000D+01 4.806250000000D+01 4.592334146293D-09-1.416032374061D+00
     2.384185791016D-06 1.514357619453D-02 9.736046195030D-06 5.153752735138D+03
     5.184000000000D+05 3.911554813385D-07-9.257432488307D-01-4.284083843231D-08
     9.513560478209D-01 1.851250000000D+02-2.321587003760D+00-7.911758127912D-09
    -8.893227581482D-11 1.000000000000D+00 2.164000000000D+03 0.000000000000D+00
     2.000000000000D+00 0.000000000000D+00-1.117587089539D-08 1.500000000000D+01
     5.112000000000D+05                   
R06 2021 07 02 22 15 00 2.007605507970D-04 0.000000000000D+00 5.112000000000D+05
     1.635062890625D+04 1.186266899109D+00-0.000000000000D+00 0.000000000000D+00
     1.244786865234D+04 1.697344779968D+00-0.000000000000D+00-4.000000000000D+00
     1.509202099609D+04-2.685729026794D+00-1.862645149231D-09 0.000000000000D+00
R23 2021 07 02 22 15 00-8.654780685902D-06-0.000000000000D+00 5.112000000000D+05
    -1.781722656250D+03 1.311356544495D+00 0.000000000000D+00 0.000000000000D+00
    -1.511009277344D+04-2.487710952759D+00-0.000000000000D+00 3.000000000000D+00
     2.045834130859D+04-1.721828460693D+00-9.313225746155D-10 0.000000000000D+00
R09 2021 07 02 22 15 00 9.443610906601D-07 2.728484105319D-12 5.112000000000D+05
     2.377327685547D+04-1.178542137146D+00 0.000000000000D+00 0.000000000000D+00
     3.636249023438D+03-8.034420013428D-02-9.313225746155D-10-2.000000000000D+00
     8.633328125000D+03 3.279548645020D+00-1.862645149231D-09 0.000000000000D+00
R16 2021 07 02 22 15 00-1.729279756546D-05-9.094947017729D-13 5.112000000000D+05
     1.114020263672D+04-2.849654197693D+00-9.313225746155D-10 0.000000000000D+00
     9.659825195313D+03 6.425380706787D-02-0.000000000000D+00-1.000000000000D+00
     2.076221435547D+04 1.509277343750D+00-1.862645149231D-09 0.000000000000D+00
R05 2021 07 02 22 15 00 7.462594658136D-05 9.094947017729D-13 5.112000000000D+05
     1.121185937500D+04-1.048126220703D-01-9.313225746155D-10 0.000000000000D+00
     2.259151074219D+04-5.342350006104D-01 0.000000000000D+00 1.000000000000D+00
    -3.735098144531D+03-3.534402847290D+00-0.000000000000D+00 0.000000000000D+00
R07 2021 07 02 22 15 00-4.216190427542D-05 0.000000000000D+00 5.112000000000D+05
     1.055696191406D+04 1.607002258301D+00-0.000000000000D+00 0.000000000000D+00
    -3.597824218750D+03 2.692215919495D+00-9.313225746155D-10 5.000000000000D+00
     2.297825244141D+04-3.212080001831D-01-1.862645149231D-09 0.000000000000D+00
R15 2021 07 02 22 15 00 1.029167324305D-04 0.000000000000D+00 5.112000000000D+05
    -9.703354492188D+03-2.901965141296D+00-1.862645149231D-09 0.000000000000D+00
     1.029318945313D+04 1.005964279175D-01 9.313225746155D-10 0.000000000000D+00
     2.124835644531D+04-1.375931739807D+00-9.313225746155D-10 0.000000000000D+00
R10 2021 07 02 22 15 00-7.247459143400D-05-0.000000000000D+00 5.112000000000D+05
     2.383911572266D+04 1.072252273560D+00 1.862645149231D-09 0.000000000000D+00
    -4.368951171875D+03-1.707553863525D-01-9.313225746155D-10-7.000000000000D+00
    -7.851969726563D+03 3.357708930969D+00-0.000000000000D+00 0.000000000000D+00
